QIANFAN-1               
1 60379U 24140A   25220.85649517  .00000130  00000+0  18343-3 0  9997
2 60379  88.9842 312.2958 0016757 212.0885 147.9248 13.50956995 50358
QIANFAN-2               
1 60380U 24140B   25220.88524925  .00000140  00000+0  19841-3 0  9992
2 60380  88.9827 312.1497 0013130 181.5826 178.5285 13.50963523 50410
QIANFAN-3               
1 60381U 24140C   25220.89342940  .00000034  00000+0  33657-4 0  9993
2 60381  88.9820 312.2905 0013777 194.6656 165.4097 13.50957618 50326
QIANFAN-4               
1 60382U 24140D   25220.86884974  .00000121  00000+0  16877-3 0  9990
2 60382  88.9845 312.1594 0013263 184.3494 175.7544 13.50957024 50448
QIANFAN-5               
1 60383U 24140E   25220.91824856  .00000143  00000+0  20237-3 0  9999
2 60383  88.9820 312.3140 0014611 206.7752 153.2646 13.50960241 50310
QIANFAN-6               
1 60384U 24140F   25220.86467850  .00000123  00000+0  17147-3 0  9995
2 60384  88.9846 312.0322 0013152 190.2578 169.8307 13.50956654 50501
QIANFAN-7               
1 60385U 24140G   25220.85612691  .00000590  00000+0  23372-3 0  9995
2 60385  88.9847 308.5008 0017541  96.1420 264.1773 14.27505144 52439
QIANFAN-8               
1 60386U 24140H   25220.87298256  .00000122  00000+0  17003-3 0  9990
2 60386  88.9848 312.2666 0016482 194.3909 165.6774 13.50960551 50356
